CCSDS_OMM_VERS = 2.0
CREATION_DATE  = 
ORIGINATOR     = 

OBJECT_NAME    = UNKNOWN
OBJECT_ID      = 
CENTER_NAME    = EARTH
REF_FRAME      = TEME
TIME_SYSTEM    = UTC
MEAN_ELEMENT_THEORY = SGP/SGP4

EPOCH          = 2026-01-16T17:15:35.689248
MEAN_MOTION    = 12.76557091
ECCENTRICITY   = .00512655
INCLINATION    = 101.1029
RA_OF_ASC_NODE = 3.6668
ARG_OF_PERICENTER = 198.0863
MEAN_ANOMALY   = 161.8401

EPHEMERIS_TYPE = 0
CLASSIFICATION_TYPE = U
NORAD_CAT_ID   = 270161
ELEMENT_SET_NO = 999
REV_AT_EPOCH   = 28564
BSTAR          = .17363318E-2
MEAN_MOTION_DOT = .335E-5
MEAN_MOTION_DDOT = 0

CCSDS_OMM_VERS = 2.0
CREATION_DATE  = 
ORIGINATOR     = 

OBJECT_NAME    = UNKNOWN
OBJECT_ID      = 
CENTER_NAME    = EARTH
REF_FRAME      = TEME
TIME_SYSTEM    = UTC
MEAN_ELEMENT_THEORY = SGP/SGP4

EPOCH          = 2026-01-16T20:09:50.038272
MEAN_MOTION    = 12.64513201
ECCENTRICITY   = .09260092
INCLINATION    = 28.8393
RA_OF_ASC_NODE = 74.0781
ARG_OF_PERICENTER = 156.4556
MEAN_ANOMALY   = 208.1301

EPHEMERIS_TYPE = 0
CLASSIFICATION_TYPE = U
NORAD_CAT_ID   = 270162
ELEMENT_SET_NO = 999
REV_AT_EPOCH   = 28269
BSTAR          = .20944698E-3
MEAN_MOTION_DOT = .288E-5
MEAN_MOTION_DDOT = 0

CCSDS_OMM_VERS = 2.0
CREATION_DATE  = 
ORIGINATOR     = 

OBJECT_NAME    = UNKNOWN
OBJECT_ID      = 
CENTER_NAME    = EARTH
REF_FRAME      = TEME
TIME_SYSTEM    = UTC
MEAN_ELEMENT_THEORY = SGP/SGP4

EPOCH          = 2026-01-17T04:51:01.687968
MEAN_MOTION    = 12.99994706
ECCENTRICITY   = .00259735
INCLINATION    = 90.2431
RA_OF_ASC_NODE = 7.8773
ARG_OF_PERICENTER = 311.6539
MEAN_ANOMALY   = 48.2360

EPHEMERIS_TYPE = 0
CLASSIFICATION_TYPE = U
NORAD_CAT_ID   = 270164
ELEMENT_SET_NO = 999
REV_AT_EPOCH   = 29036
BSTAR          = .16973566E-2
MEAN_MOTION_DOT = .518E-5
MEAN_MOTION_DDOT = 0

CCSDS_OMM_VERS = 2.0
CREATION_DATE  = 
ORIGINATOR     = 

OBJECT_NAME    = UNKNOWN
OBJECT_ID      = 
CENTER_NAME    = EARTH
REF_FRAME      = TEME
TIME_SYSTEM    = UTC
MEAN_ELEMENT_THEORY = SGP/SGP4

EPOCH          = 2026-01-16T16:20:34.478304
MEAN_MOTION    = 12.95690184
ECCENTRICITY   = .00415828
INCLINATION    = 90.2392
RA_OF_ASC_NODE = 8.8304
ARG_OF_PERICENTER = 234.2732
MEAN_ANOMALY   = 125.4517

EPHEMERIS_TYPE = 0
CLASSIFICATION_TYPE = U
NORAD_CAT_ID   = 270165
ELEMENT_SET_NO = 999
REV_AT_EPOCH   = 28884
BSTAR          = -.23212482E-3
MEAN_MOTION_DOT = -.59E-6
MEAN_MOTION_DDOT = 0

CCSDS_OMM_VERS = 2.0
CREATION_DATE  = 
ORIGINATOR     = 

OBJECT_NAME    = UNKNOWN
OBJECT_ID      = 
CENTER_NAME    = EARTH
REF_FRAME      = TEME
TIME_SYSTEM    = UTC
MEAN_ELEMENT_THEORY = SGP/SGP4

EPOCH          = 2026-01-11T18:42:51.957792
MEAN_MOTION    = 14.31231027
ECCENTRICITY   = .00056311
INCLINATION    = 98.7490
RA_OF_ASC_NODE = 32.7288
ARG_OF_PERICENTER = 146.6262
MEAN_ANOMALY   = 213.5276

EPHEMERIS_TYPE = 0
CLASSIFICATION_TYPE = U
NORAD_CAT_ID   = 270166
ELEMENT_SET_NO = 999
REV_AT_EPOCH   = 31942
BSTAR          = .13162184E-3
MEAN_MOTION_DOT = .303E-5
MEAN_MOTION_DDOT = 0

CCSDS_OMM_VERS = 2.0
CREATION_DATE  = 
ORIGINATOR     = 

OBJECT_NAME    = UNKNOWN
OBJECT_ID      = 
CENTER_NAME    = EARTH
REF_FRAME      = TEME
TIME_SYSTEM    = UTC
MEAN_ELEMENT_THEORY = SGP/SGP4

EPOCH          = 2025-12-20T23:38:02.292864
MEAN_MOTION    = 11.48035833
ECCENTRICITY   = .07034666
INCLINATION    = 65.7367
RA_OF_ASC_NODE = 102.8778
ARG_OF_PERICENTER = 192.1233
MEAN_ANOMALY   = 166.1978

EPHEMERIS_TYPE = 0
CLASSIFICATION_TYPE = U
NORAD_CAT_ID   = 270167
ELEMENT_SET_NO = 999
REV_AT_EPOCH   = 25404
BSTAR          = .23478926E-3
MEAN_MOTION_DOT = -.25E-6
MEAN_MOTION_DDOT = 0

CCSDS_OMM_VERS = 2.0
CREATION_DATE  = 
ORIGINATOR     = 

OBJECT_NAME    = UNKNOWN
OBJECT_ID      = 
CENTER_NAME    = EARTH
REF_FRAME      = TEME
TIME_SYSTEM    = UTC
MEAN_ELEMENT_THEORY = SGP/SGP4

EPOCH          = 2026-01-02T15:06:27.802080
MEAN_MOTION    = 14.38741526
ECCENTRICITY   = .00637063
INCLINATION    = 86.1987
RA_OF_ASC_NODE = 332.5034
ARG_OF_PERICENTER = 180.6067
MEAN_ANOMALY   = 179.5065

EPHEMERIS_TYPE = 0
CLASSIFICATION_TYPE = U
NORAD_CAT_ID   = 270168
ELEMENT_SET_NO = 999
REV_AT_EPOCH   = 31807
BSTAR          = .2605134E-2
MEAN_MOTION_DOT = .821E-4
MEAN_MOTION_DDOT = 0

CCSDS_OMM_VERS = 2.0
CREATION_DATE  = 
ORIGINATOR     = 

OBJECT_NAME    = UNKNOWN
OBJECT_ID      = 
CENTER_NAME    = EARTH
REF_FRAME      = TEME
TIME_SYSTEM    = UTC
MEAN_ELEMENT_THEORY = SGP/SGP4

EPOCH          = 2026-01-11T21:17:46.152672
MEAN_MOTION    = 14.41578529
ECCENTRICITY   = .00151383
INCLINATION    = 65.0059
RA_OF_ASC_NODE = 234.0514
ARG_OF_PERICENTER = 283.9138
MEAN_ANOMALY   = 76.0268

EPHEMERIS_TYPE = 0
CLASSIFICATION_TYPE = U
NORAD_CAT_ID   = 270170
ELEMENT_SET_NO = 999
REV_AT_EPOCH   = 32119
BSTAR          = .41549172E-3
MEAN_MOTION_DOT = .1254E-4
MEAN_MOTION_DDOT = 0

CCSDS_OMM_VERS = 2.0
CREATION_DATE  = 
ORIGINATOR     = 

OBJECT_NAME    = UNKNOWN
OBJECT_ID      = 
CENTER_NAME    = EARTH
REF_FRAME      = TEME
TIME_SYSTEM    = UTC
MEAN_ELEMENT_THEORY = SGP/SGP4

EPOCH          = 2026-01-13T07:18:40.421664
MEAN_MOTION    = 11.95838149
ECCENTRICITY   = .0019367
INCLINATION    = 82.4219
RA_OF_ASC_NODE = 36.7265
ARG_OF_PERICENTER = 261.5824
MEAN_ANOMALY   = 98.3033

EPHEMERIS_TYPE = 0
CLASSIFICATION_TYPE = U
NORAD_CAT_ID   = 270171
ELEMENT_SET_NO = 999
REV_AT_EPOCH   = 26712
BSTAR          = .42830333E-2
MEAN_MOTION_DOT = .337E-5
MEAN_MOTION_DDOT = 0

CCSDS_OMM_VERS = 2.0
CREATION_DATE  = 
ORIGINATOR     = 

OBJECT_NAME    = UNKNOWN
OBJECT_ID      = 
CENTER_NAME    = EARTH
REF_FRAME      = TEME
TIME_SYSTEM    = UTC
MEAN_ELEMENT_THEORY = SGP/SGP4

EPOCH          = 2026-01-11T06:58:32.737152
MEAN_MOTION    = 14.45572903
ECCENTRICITY   = .00267789
INCLINATION    = 86.3736
RA_OF_ASC_NODE = 28.9743
ARG_OF_PERICENTER = 60.5181
MEAN_ANOMALY   = 299.8688

EPHEMERIS_TYPE = 0
CLASSIFICATION_TYPE = U
NORAD_CAT_ID   = 270172
ELEMENT_SET_NO = 999
REV_AT_EPOCH   = 32162
BSTAR          = .47699052E-3
MEAN_MOTION_DOT = .1711E-4
MEAN_MOTION_DDOT = 0

CCSDS_OMM_VERS = 2.0
CREATION_DATE  = 
ORIGINATOR     = 

OBJECT_NAME    = UNKNOWN
OBJECT_ID      = 
CENTER_NAME    = EARTH
REF_FRAME      = TEME
TIME_SYSTEM    = UTC
MEAN_ELEMENT_THEORY = SGP/SGP4

EPOCH          = 2026-01-17T08:31:30.938016
MEAN_MOTION    = 14.85270084
ECCENTRICITY   = .00016515
INCLINATION    = 86.6017
RA_OF_ASC_NODE = 50.7846
ARG_OF_PERICENTER = 84.0565
MEAN_ANOMALY   = 276.0848

EPHEMERIS_TYPE = 0
CLASSIFICATION_TYPE = U
NORAD_CAT_ID   = 270173
ELEMENT_SET_NO = 999
REV_AT_EPOCH   = 32934
BSTAR          = .32764429E-3
MEAN_MOTION_DOT = .2837E-4
MEAN_MOTION_DDOT = 0

CCSDS_OMM_VERS = 2.0
CREATION_DATE  = 
ORIGINATOR     = 

OBJECT_NAME    = UNKNOWN
OBJECT_ID      = 
CENTER_NAME    = EARTH
REF_FRAME      = TEME
TIME_SYSTEM    = UTC
MEAN_ELEMENT_THEORY = SGP/SGP4

EPOCH          = 2026-01-13T08:45:17.145792
MEAN_MOTION    = 11.49751784
ECCENTRICITY   = .09503971
INCLINATION    = 63.3923
RA_OF_ASC_NODE = 35.6509
ARG_OF_PERICENTER = 317.6369
MEAN_ANOMALY   = 35.4812

EPHEMERIS_TYPE = 0
CLASSIFICATION_TYPE = U
NORAD_CAT_ID   = 270174
ELEMENT_SET_NO = 999
REV_AT_EPOCH   = 25758
BSTAR          = -.9675379E-3
MEAN_MOTION_DOT = -.179E-5
MEAN_MOTION_DDOT = 0

CCSDS_OMM_VERS = 2.0
CREATION_DATE  = 
ORIGINATOR     = 

OBJECT_NAME    = UNKNOWN
OBJECT_ID      = 
CENTER_NAME    = EARTH
REF_FRAME      = TEME
TIME_SYSTEM    = UTC
MEAN_ELEMENT_THEORY = SGP/SGP4

EPOCH          = 2026-01-13T13:27:24.646752
MEAN_MOTION    = 12.21060939
ECCENTRICITY   = .0827378
INCLINATION    = 83.3254
RA_OF_ASC_NODE = 121.9266
ARG_OF_PERICENTER = 270.3907
MEAN_ANOMALY   = 80.2505

EPHEMERIS_TYPE = 0
CLASSIFICATION_TYPE = U
NORAD_CAT_ID   = 270175
ELEMENT_SET_NO = 999
REV_AT_EPOCH   = 27282
BSTAR          = .80120701E-2
MEAN_MOTION_DOT = .253E-4
MEAN_MOTION_DDOT = 0

CCSDS_OMM_VERS = 2.0
CREATION_DATE  = 
ORIGINATOR     = 

OBJECT_NAME    = UNKNOWN
OBJECT_ID      = 
CENTER_NAME    = EARTH
REF_FRAME      = TEME
TIME_SYSTEM    = UTC
MEAN_ELEMENT_THEORY = SGP/SGP4

EPOCH          = 2026-01-11T04:37:11.839296
MEAN_MOTION    = 13.04466857
ECCENTRICITY   = .00281999
INCLINATION    = 90.2295
RA_OF_ASC_NODE = 353.5844
ARG_OF_PERICENTER = 264.6261
MEAN_ANOMALY   = 95.1646

EPHEMERIS_TYPE = 0
CLASSIFICATION_TYPE = U
NORAD_CAT_ID   = 270176
ELEMENT_SET_NO = 999
REV_AT_EPOCH   = 29031
BSTAR          = -.48285859E-3
MEAN_MOTION_DOT = -.148E-5
MEAN_MOTION_DDOT = 0

CCSDS_OMM_VERS = 2.0
CREATION_DATE  = 
ORIGINATOR     = 

OBJECT_NAME    = UNKNOWN
OBJECT_ID      = 
CENTER_NAME    = EARTH
REF_FRAME      = TEME
TIME_SYSTEM    = UTC
MEAN_ELEMENT_THEORY = SGP/SGP4

EPOCH          = 2026-01-10T22:02:21.461280
MEAN_MOTION    = 12.53612860
ECCENTRICITY   = .00982394
INCLINATION    = 100.9049
RA_OF_ASC_NODE = 80.0461
ARG_OF_PERICENTER = 234.7759
MEAN_ANOMALY   = 124.4090

EPHEMERIS_TYPE = 0
CLASSIFICATION_TYPE = U
NORAD_CAT_ID   = 270177
ELEMENT_SET_NO = 999
REV_AT_EPOCH   = 27964
BSTAR          = .21765894E-2
MEAN_MOTION_DOT = .313E-5
MEAN_MOTION_DDOT = 0

CCSDS_OMM_VERS = 2.0
CREATION_DATE  = 
ORIGINATOR     = 

OBJECT_NAME    = UNKNOWN
OBJECT_ID      = 
CENTER_NAME    = EARTH
REF_FRAME      = TEME
TIME_SYSTEM    = UTC
MEAN_ELEMENT_THEORY = SGP/SGP4

EPOCH          = 2026-01-13T17:24:37.711872
MEAN_MOTION    = 14.32135141
ECCENTRICITY   = .00187094
INCLINATION    = 98.6882
RA_OF_ASC_NODE = 17.1496
ARG_OF_PERICENTER = 248.4400
MEAN_ANOMALY   = 111.4790

EPHEMERIS_TYPE = 0
CLASSIFICATION_TYPE = U
NORAD_CAT_ID   = 270178
ELEMENT_SET_NO = 999
REV_AT_EPOCH   = 31901
BSTAR          = .11610436E-3
MEAN_MOTION_DOT = .268E-5
MEAN_MOTION_DDOT = 0

